<?xml version="1.0" encoding="UTF-8"?>
<ndm xmlns:xsi="http://www.w3.org/2001/XMLSchema-instance" xsi:noNamespaceSchemaLocation="https://sanaregistry.org/r/ndmxml_unqualified/ndmxml-2.0.0-master-2.0.xsd">
<omm id="CCSDS_OMM_VERS" version="2.0">
<header><CREATION_DATE/><ORIGINATOR/></header><body><segment><metadata><OBJECT_NAME>KUIPER-00071</OBJECT_NAME><OBJECT_ID>2025-151C</OBJECT_ID><CENTER_NAME>EARTH</CENTER_NAME><REF_FRAME>TEME</REF_FRAME><TIME_SYSTEM>UTC</TIME_SYSTEM><MEAN_ELEMENT_THEORY>SGP4</MEAN_ELEMENT_THEORY></metadata><data><meanElements><EPOCH>2025-11-18T16:54:15.380352</EPOCH><MEAN_MOTION>14.79948408</MEAN_MOTION><ECCENTRICITY>.0007431</ECCENTRICITY><INCLINATION>51.9010</INCLINATION><RA_OF_ASC_NODE>73.8483</RA_OF_ASC_NODE><ARG_OF_PERICENTER>213.5888</ARG_OF_PERICENTER><MEAN_ANOMALY>146.4604</MEAN_ANOMALY></meanElements><tleParameters><EPHEMERIS_TYPE>0</EPHEMERIS_TYPE><CLASSIFICATION_TYPE>U</CLASSIFICATION_TYPE><NORAD_CAT_ID>64818</NORAD_CAT_ID><ELEMENT_SET_NO>999</ELEMENT_SET_NO><REV_AT_EPOCH>1883</REV_AT_EPOCH><BSTAR>-.51696E-3</BSTAR><MEAN_MOTION_DOT>-.4165E-4</MEAN_MOTION_DOT><MEAN_MOTION_DDOT>0</MEAN_MOTION_DDOT></tleParameters></data></segment></body></omm>
<omm id="CCSDS_OMM_VERS" version="2.0">
<header><CREATION_DATE/><ORIGINATOR/></header><body><segment><metadata><OBJECT_NAME>KUIPER-00072</OBJECT_NAME><OBJECT_ID>2025-151D</OBJECT_ID><CENTER_NAME>EARTH</CENTER_NAME><REF_FRAME>TEME</REF_FRAME><TIME_SYSTEM>UTC</TIME_SYSTEM><MEAN_ELEMENT_THEORY>SGP4</MEAN_ELEMENT_THEORY></metadata><data><meanElements><EPOCH>2025-11-18T15:45:13.759200</EPOCH><MEAN_MOTION>14.86398212</MEAN_MOTION><ECCENTRICITY>.000215</ECCENTRICITY><INCLINATION>51.9003</INCLINATION><RA_OF_ASC_NODE>53.6951</RA_OF_ASC_NODE><ARG_OF_PERICENTER>220.9286</ARG_OF_PERICENTER><MEAN_ANOMALY>139.1518</MEAN_ANOMALY></meanElements><tleParameters><EPHEMERIS_TYPE>0</EPHEMERIS_TYPE><CLASSIFICATION_TYPE>U</CLASSIFICATION_TYPE><NORAD_CAT_ID>64819</NORAD_CAT_ID><ELEMENT_SET_NO>999</ELEMENT_SET_NO><REV_AT_EPOCH>1911</REV_AT_EPOCH><BSTAR>.49442E-3</BSTAR><MEAN_MOTION_DOT>.4174E-4</MEAN_MOTION_DOT><MEAN_MOTION_DDOT>0</MEAN_MOTION_DDOT></tleParameters></data></segment></body></omm>
<omm id="CCSDS_OMM_VERS" version="2.0">
<header><CREATION_DATE/><ORIGINATOR/></header><body><segment><metadata><OBJECT_NAME>KUIPER-00073</OBJECT_NAME><OBJECT_ID>2025-151E</OBJECT_ID><CENTER_NAME>EARTH</CENTER_NAME><REF_FRAME>TEME</REF_FRAME><TIME_SYSTEM>UTC</TIME_SYSTEM><MEAN_ELEMENT_THEORY>SGP4</MEAN_ELEMENT_THEORY></metadata><data><meanElements><EPOCH>2025-11-18T16:03:03.168288</EPOCH><MEAN_MOTION>14.80158496</MEAN_MOTION><ECCENTRICITY>.0012976</ECCENTRICITY><INCLINATION>51.8995</INCLINATION><RA_OF_ASC_NODE>73.9839</RA_OF_ASC_NODE><ARG_OF_PERICENTER>242.1505</ARG_OF_PERICENTER><MEAN_ANOMALY>117.8143</MEAN_ANOMALY></meanElements><tleParameters><EPHEMERIS_TYPE>0</EPHEMERIS_TYPE><CLASSIFICATION_TYPE>U</CLASSIFICATION_TYPE><NORAD_CAT_ID>64820</NORAD_CAT_ID><ELEMENT_SET_NO>999</ELEMENT_SET_NO><REV_AT_EPOCH>2001</REV_AT_EPOCH><BSTAR>.66709E-3</BSTAR><MEAN_MOTION_DOT>.4899E-4</MEAN_MOTION_DOT><MEAN_MOTION_DDOT>0</MEAN_MOTION_DDOT></tleParameters></data></segment></body></omm>
<omm id="CCSDS_OMM_VERS" version="2.0">
<header><CREATION_DATE/><ORIGINATOR/></header><body><segment><metadata><OBJECT_NAME>KUIPER-00074</OBJECT_NAME><OBJECT_ID>2025-151F</OBJECT_ID><CENTER_NAME>EARTH</CENTER_NAME><REF_FRAME>TEME</REF_FRAME><TIME_SYSTEM>UTC</TIME_SYSTEM><MEAN_ELEMENT_THEORY>SGP4</MEAN_ELEMENT_THEORY></metadata><data><meanElements><EPOCH>2025-11-18T16:25:04.879200</EPOCH><MEAN_MOTION>14.79946676</MEAN_MOTION><ECCENTRICITY>.0012402</ECCENTRICITY><INCLINATION>51.9025</INCLINATION><RA_OF_ASC_NODE>61.4498</RA_OF_ASC_NODE><ARG_OF_PERICENTER>260.5395</ARG_OF_PERICENTER><MEAN_ANOMALY>99.4166</MEAN_ANOMALY></meanElements><tleParameters><EPHEMERIS_TYPE>0</EPHEMERIS_TYPE><CLASSIFICATION_TYPE>U</CLASSIFICATION_TYPE><NORAD_CAT_ID>64821</NORAD_CAT_ID><ELEMENT_SET_NO>999</ELEMENT_SET_NO><REV_AT_EPOCH>1900</REV_AT_EPOCH><BSTAR>.93118E-3</BSTAR><MEAN_MOTION_DOT>.6893E-4</MEAN_MOTION_DOT><MEAN_MOTION_DDOT>0</MEAN_MOTION_DDOT></tleParameters></data></segment></body></omm>
<omm id="CCSDS_OMM_VERS" version="2.0">
<header><CREATION_DATE/><ORIGINATOR/></header><body><segment><metadata><OBJECT_NAME>KUIPER-00075</OBJECT_NAME><OBJECT_ID>2025-151G</OBJECT_ID><CENTER_NAME>EARTH</CENTER_NAME><REF_FRAME>TEME</REF_FRAME><TIME_SYSTEM>UTC</TIME_SYSTEM><MEAN_ELEMENT_THEORY>SGP4</MEAN_ELEMENT_THEORY></metadata><data><meanElements><EPOCH>2025-11-18T15:11:08.113920</EPOCH><MEAN_MOTION>15.40069751</MEAN_MOTION><ECCENTRICITY>.000413</ECCENTRICITY><INCLINATION>51.8774</INCLINATION><RA_OF_ASC_NODE>41.1538</RA_OF_ASC_NODE><ARG_OF_PERICENTER>230.5576</ARG_OF_PERICENTER><MEAN_ANOMALY>129.5047</MEAN_ANOMALY></meanElements><tleParameters><EPHEMERIS_TYPE>0</EPHEMERIS_TYPE><CLASSIFICATION_TYPE>U</CLASSIFICATION_TYPE><NORAD_CAT_ID>64822</NORAD_CAT_ID><ELEMENT_SET_NO>999</ELEMENT_SET_NO><REV_AT_EPOCH>1928</REV_AT_EPOCH><BSTAR>.11297E-2</BSTAR><MEAN_MOTION_DOT>.45788E-3</MEAN_MOTION_DOT><MEAN_MOTION_DDOT>0</MEAN_MOTION_DDOT></tleParameters></data></segment></body></omm>
<omm id="CCSDS_OMM_VERS" version="2.0">
<header><CREATION_DATE/><ORIGINATOR/></header><body><segment><metadata><OBJECT_NAME>KUIPER-00076</OBJECT_NAME><OBJECT_ID>2025-151H</OBJECT_ID><CENTER_NAME>EARTH</CENTER_NAME><REF_FRAME>TEME</REF_FRAME><TIME_SYSTEM>UTC</TIME_SYSTEM><MEAN_ELEMENT_THEORY>SGP4</MEAN_ELEMENT_THEORY></metadata><data><meanElements><EPOCH>2025-11-18T16:21:16.390080</EPOCH><MEAN_MOTION>14.79946895</MEAN_MOTION><ECCENTRICITY>.0004589</ECCENTRICITY><INCLINATION>51.9010</INCLINATION><RA_OF_ASC_NODE>63.9564</RA_OF_ASC_NODE><ARG_OF_PERICENTER>253.4704</ARG_OF_PERICENTER><MEAN_ANOMALY>106.5754</MEAN_ANOMALY></meanElements><tleParameters><EPHEMERIS_TYPE>0</EPHEMERIS_TYPE><CLASSIFICATION_TYPE>U</CLASSIFICATION_TYPE><NORAD_CAT_ID>64823</NORAD_CAT_ID><ELEMENT_SET_NO>999</ELEMENT_SET_NO><REV_AT_EPOCH>1897</REV_AT_EPOCH><BSTAR>-.11468E-5</BSTAR><MEAN_MOTION_DOT>-.231E-5</MEAN_MOTION_DOT><MEAN_MOTION_DDOT>0</MEAN_MOTION_DDOT></tleParameters></data></segment></body></omm>
<omm id="CCSDS_OMM_VERS" version="2.0">
<header><CREATION_DATE/><ORIGINATOR/></header><body><segment><metadata><OBJECT_NAME>KUIPER-00077</OBJECT_NAME><OBJECT_ID>2025-151J</OBJECT_ID><CENTER_NAME>EARTH</CENTER_NAME><REF_FRAME>TEME</REF_FRAME><TIME_SYSTEM>UTC</TIME_SYSTEM><MEAN_ELEMENT_THEORY>SGP4</MEAN_ELEMENT_THEORY></metadata><data><meanElements><EPOCH>2025-11-18T16:13:33.153888</EPOCH><MEAN_MOTION>14.79948057</MEAN_MOTION><ECCENTRICITY>.0006343</ECCENTRICITY><INCLINATION>51.9022</INCLINATION><RA_OF_ASC_NODE>68.9840</RA_OF_ASC_NODE><ARG_OF_PERICENTER>204.5087</ARG_OF_PERICENTER><MEAN_ANOMALY>155.5575</MEAN_ANOMALY></meanElements><tleParameters><EPHEMERIS_TYPE>0</EPHEMERIS_TYPE><CLASSIFICATION_TYPE>U</CLASSIFICATION_TYPE><NORAD_CAT_ID>64824</NORAD_CAT_ID><ELEMENT_SET_NO>999</ELEMENT_SET_NO><REV_AT_EPOCH>1890</REV_AT_EPOCH><BSTAR>.64367E-3</BSTAR><MEAN_MOTION_DOT>.4691E-4</MEAN_MOTION_DOT><MEAN_MOTION_DDOT>0</MEAN_MOTION_DDOT></tleParameters></data></segment></body></omm>
<omm id="CCSDS_OMM_VERS" version="2.0">
<header><CREATION_DATE/><ORIGINATOR/></header><body><segment><metadata><OBJECT_NAME>KUIPER-00078</OBJECT_NAME><OBJECT_ID>2025-151K</OBJECT_ID><CENTER_NAME>EARTH</CENTER_NAME><REF_FRAME>TEME</REF_FRAME><TIME_SYSTEM>UTC</TIME_SYSTEM><MEAN_ELEMENT_THEORY>SGP4</MEAN_ELEMENT_THEORY></metadata><data><meanElements><EPOCH>2025-11-18T17:05:59.147232</EPOCH><MEAN_MOTION>14.79946090</MEAN_MOTION><ECCENTRICITY>.0006997</ECCENTRICITY><INCLINATION>51.9024</INCLINATION><RA_OF_ASC_NODE>66.3195</RA_OF_ASC_NODE><ARG_OF_PERICENTER>276.4243</ARG_OF_PERICENTER><MEAN_ANOMALY>83.5923</MEAN_ANOMALY></meanElements><tleParameters><EPHEMERIS_TYPE>0</EPHEMERIS_TYPE><CLASSIFICATION_TYPE>U</CLASSIFICATION_TYPE><NORAD_CAT_ID>64825</NORAD_CAT_ID><ELEMENT_SET_NO>999</ELEMENT_SET_NO><REV_AT_EPOCH>1894</REV_AT_EPOCH><BSTAR>.58897E-3</BSTAR><MEAN_MOTION_DOT>.4273E-4</MEAN_MOTION_DOT><MEAN_MOTION_DDOT>0</MEAN_MOTION_DDOT></tleParameters></data></segment></body></omm>

</ndm>
