KUIPER-00071            
1 64818U 25151C   25322.70434468 -.00004165  00000+0 -51696-3 0  9998
2 64818  51.9010  73.8483 0007430 213.5888 146.4604 14.79948408 18836
KUIPER-00072            
1 64819U 25151D   25322.65640925  .00004174  00000+0  49442-3 0  9994
2 64819  51.9003  53.6951 0002149 220.9286 139.1518 14.86398212 19116
KUIPER-00073            
1 64820U 25151E   25322.66878667  .00004899  00000+0  66709-3 0  9992
2 64820  51.8995  73.9839 0012975 242.1505 117.8143 14.80158496 20015
KUIPER-00074            
1 64821U 25151F   25322.68408425  .00006893  00000+0  93118-3 0  9996
2 64821  51.9025  61.4498 0012402 260.5395  99.4166 14.79946676 19000
KUIPER-00075            
1 64822U 25151G   25322.63273281  .00045788  00000+0  11297-2 0  9995
2 64822  51.8774  41.1538 0004129 230.5576 129.5047 15.40069751 19288
KUIPER-00076            
1 64823U 25151H   25322.68143970 -.00000231  00000+0 -11468-5 0  9991
2 64823  51.9010  63.9564 0004588 253.4704 106.5754 14.79946895 18979
KUIPER-00077            
1 64824U 25151J   25322.67607818  .00004691  00000+0  64367-3 0  9993
2 64824  51.9022  68.9840 0006342 204.5087 155.5575 14.79948057 18906
KUIPER-00078            
1 64825U 25151K   25322.71249013  .00004273  00000+0  58897-3 0  9995
2 64825  51.9024  66.3195 0006996 276.4243  83.5923 14.79946090 18947
